{"type": "FeatureCollection", "features": [ {"type": "Feature", "properties": {"norad_id": 44476, "name": "INTELSAT 39 (IS-39)", "group": "intelsat", "lat": 0.014353438774447145, "lon": 30.086282291877836, "alt_km": 35788.82369320223, "timestamp": "2025-12-27T15:27:10.811452+00:00", "meta": {"OBJECT_NAME": "INTELSAT 39 (IS-39)", "OBJECT_ID": "2019-049B", "EPOCH": "2025-12-27T04:44:07.817280", "MEAN_MOTION": 1.00270152, "ECCENTRICITY": 8.904e-05, "INCLINATION": 0.0212, "RA_OF_ASC_NODE": 10.5992, "ARG_OF_PERICENTER": 147.824, "MEAN_ANOMALY": 70.4783, "EPHEMERIS_TYPE": 0, "CLASSIFICATION_TYPE": "U", "NORAD_CAT_ID": 44476, "ELEMENT_SET_NO": 999, "REV_AT_EPOCH": 2340, "BSTAR": 0, "MEAN_MOTION_DOT": 0, "MEAN_MOTION_DDOT": 0}, "tle": {"line1": "1 44476U 19049B   25361.19731270  .00000000  00000+0  00000+0 0  9993", "line2": "2 44476   0.0212  10.5992 0000890 147.8240  70.4783  1.00270152 23407"}}, "geometry": {"type": "Point", "coordinates": [30.086282291877836, 0.014353438774447145]}}, {"type": "Feature", "properties": {"norad_id": 46114, "name": "GALAXY 30 (G-30)", "group": "intelsat", "lat": -0.013126791465241514, "lon": -156.8717626645019, "alt_km": 35783.34110709093, "timestamp": "2025-12-27T15:27:10.811464+00:00", "meta": {"OBJECT_NAME": "GALAXY 30 (G-30)", "OBJECT_ID": "2020-056C", "EPOCH": "2025-12-27T05:33:33.081696", "MEAN_MOTION": 1.00271208, "ECCENTRICITY": 0.00023563, "INCLINATION": 0.0135, "RA_OF_ASC_NODE": 354.4997, "ARG_OF_PERICENTER": 281.8756, "MEAN_ANOMALY": 137.9735, "EPHEMERIS_TYPE": 0, "CLASSIFICATION_TYPE": "U", "NORAD_CAT_ID": 46114, "ELEMENT_SET_NO": 999, "REV_AT_EPOCH": 1956, "BSTAR": 0, "MEAN_MOTION_DOT": 5.9e-07, "MEAN_MOTION_DDOT": 0}, "tle": {"line1": "1 46114U 20056C   25361.23163289  .00000059  00000+0  00000+0 0  9992", "line2": "2 46114   0.0135 354.4997 0002356 281.8756 137.9735  1.00271208 19568"}}, "geometry": {"type": "Point", "coordinates": [-156.8717626645019, -0.013126791465241514]}}, {"type": "Feature", "properties": {"norad_id": 54026, "name": "GALAXY 33 (G-33)", "group": "intelsat", "lat": -0.010323887246147379, "lon": -164.86185711066656, "alt_km": 35784.382824173445, "timestamp": "2025-12-27T15:27:10.811475+00:00", "meta": {"OBJECT_NAME": "GALAXY 33 (G-33)", "OBJECT_ID": "2022-128A", "EPOCH": "2025-12-27T05:31:18.296832", "MEAN_MOTION": 1.00271483, "ECCENTRICITY": 0.00018397, "INCLINATION": 0.0165, "RA_OF_ASC_NODE": 353.3938, "ARG_OF_PERICENTER": 278.7441, "MEAN_ANOMALY": 133.6519, "EPHEMERIS_TYPE": 0, "CLASSIFICATION_TYPE": "U", "NORAD_CAT_ID": 54026, "ELEMENT_SET_NO": 999, "REV_AT_EPOCH": 1201, "BSTAR": 0, "MEAN_MOTION_DOT": 1.01e-06, "MEAN_MOTION_DDOT": 0}, "tle": {"line1": "1 54026U 22128A   25361.23007288  .00000101  00000+0  00000+0 0  9999", "line2": "2 54026   0.0165 353.3938 0001839 278.7441 133.6519  1.00271483 12017"}}, "geometry": {"type": "Point", "coordinates": [-164.86185711066656, -0.010323887246147379]}}, {"type": "Feature", "properties": {"norad_id": 54027, "name": "GALAXY 34 (G-34)", "group": "intelsat", "lat": -0.0026879827868822284, "lon": -160.81696956923028, "alt_km": 35783.97431549709, "timestamp": "2025-12-27T15:27:10.811487+00:00", "meta": {"OBJECT_NAME": "GALAXY 34 (G-34)", "OBJECT_ID": "2022-128B", "EPOCH": "2025-12-27T05:32:25.689696", "MEAN_MOTION": 1.00270577, "ECCENTRICITY": 0.00017706, "INCLINATION": 0.0234, "RA_OF_ASC_NODE": 19.671, "ARG_OF_PERICENTER": 250.6746, "MEAN_ANOMALY": 139.7706, "EPHEMERIS_TYPE": 0, "CLASSIFICATION_TYPE": "U", "NORAD_CAT_ID": 54027, "ELEMENT_SET_NO": 999, "REV_AT_EPOCH": 1218, "BSTAR": 0, "MEAN_MOTION_DOT": 0, "MEAN_MOTION_DDOT": 0}, "tle": {"line1": "1 54027U 22128B   25361.23085289  .00000000  00000+0  00000+0 0  9995", "line2": "2 54027   0.0234  19.6710 0001770 250.6746 139.7706  1.00270577 12182"}}, "geometry": {"type": "Point", "coordinates": [-160.81696956923028, -0.0026879827868822284]}}, {"type": "Feature", "properties": {"norad_id": 54243, "name": "GALAXY 31 (G-31)", "group": "intelsat", "lat": -0.0012260693122989334, "lon": -152.86563737161916, "alt_km": 35784.702805426954, "timestamp": "2025-12-27T15:27:10.811499+00:00", "meta": {"OBJECT_NAME": "GALAXY 31 (G-31)", "OBJECT_ID": "2022-153A", "EPOCH": "2025-12-27T05:34:40.475424", "MEAN_MOTION": 1.00271303, "ECCENTRICITY": 0.0001821, "INCLINATION": 0.0066, "RA_OF_ASC_NODE": 38.5531, "ARG_OF_PERICENTER": 247.4947, "MEAN_ANOMALY": 132.5831, "EPHEMERIS_TYPE": 0, "CLASSIFICATION_TYPE": "U", "NORAD_CAT_ID": 54243, "ELEMENT_SET_NO": 999, "REV_AT_EPOCH": 540, "BSTAR": 0, "MEAN_MOTION_DOT": 3.6e-07, "MEAN_MOTION_DDOT": 0}, "tle": {"line1": "1 54243U 22153A   25361.23241291  .00000036  00000+0  00000+0 0  9999", "line2": "2 54243   0.0066  38.5531 0001821 247.4947 132.5831  1.00271303  5405"}}, "geometry": {"type": "Point", "coordinates": [-152.86563737161916, -0.0012260693122989334]}}, {"type": "Feature", "properties": {"norad_id": 54244, "name": "GALAXY 32 (G-32)", "group": "intelsat", "lat": -0.017456438609532905, "lon": -122.85967327415422, "alt_km": 35784.139719839746, "timestamp": "2025-12-27T15:27:10.811510+00:00", "meta": {"OBJECT_NAME": "GALAXY 32 (G-32)", "OBJECT_ID": "2022-153B", "EPOCH": "2025-12-27T05:43:17.150016", "MEAN_MOTION": 1.00271625, "ECCENTRICITY": 0.00020999, "INCLINATION": 0.0101, "RA_OF_ASC_NODE": 27.3802, "ARG_OF_PERICENTER": 286.8515, "MEAN_ANOMALY": 136.5664, "EPHEMERIS_TYPE": 0, "CLASSIFICATION_TYPE": "U", "NORAD_CAT_ID": 54244, "ELEMENT_SET_NO": 999, "REV_AT_EPOCH": 1142, "BSTAR": 0, "MEAN_MOTION_DOT": -1.52e-06, "MEAN_MOTION_DDOT": 0}, "tle": {"line1": "1 54244U 22153B   25361.23839294 -.00000152  00000+0  00000+0 0  9996", "line2": "2 54244   0.0101  27.3802 0002099 286.8515 136.5664  1.00271625 11423"}}, "geometry": {"type": "Point", "coordinates": [-122.85967327415422, -0.017456438609532905]}}, {"type": "Feature", "properties": {"norad_id": 54741, "name": "GALAXY 35 (G-35)", "group": "intelsat", "lat": -0.02471533967287146, "lon": -124.96850843554672, "alt_km": 35778.89025767718, "timestamp": "2025-12-27T15:27:10.811521+00:00", "meta": {"OBJECT_NAME": "GALAXY 35 (G-35)", "OBJECT_ID": "2022-170A", "EPOCH": "2025-12-27T05:42:39.710304", "MEAN_MOTION": 1.00268795, "ECCENTRICITY": 0.00026197, "INCLINATION": 0.0111, "RA_OF_ASC_NODE": 351.8184, "ARG_OF_PERICENTER": 286.6636, "MEAN_ANOMALY": 170.0523, "EPHEMERIS_TYPE": 0, "CLASSIFICATION_TYPE": "U", "NORAD_CAT_ID": 54741, "ELEMENT_SET_NO": 999, "REV_AT_EPOCH": 1117, "BSTAR": 0, "MEAN_MOTION_DOT": 0, "MEAN_MOTION_DDOT": 0}, "tle": {"line1": "1 54741U 22170A   25361.23795961  .00000000  00000+0  00000+0 0  9990", "line2": "2 54741   0.0111 351.8184 0002619 286.6636 170.0523  1.00268795 11177"}}, "geometry": {"type": "Point", "coordinates": [-124.96850843554672, -0.02471533967287146]}}, {"type": "Feature", "properties": {"norad_id": 54742, "name": "GALAXY 36 (G-36)", "group": "intelsat", "lat": 0.0008004192923211882, "lon": -120.83678434915556, "alt_km": 35786.21458519609, "timestamp": "2025-12-27T15:27:10.811533+00:00", "meta": {"OBJECT_NAME": "GALAXY 36 (G-36)", "OBJECT_ID": "2022-170B", "EPOCH": "2025-12-27T05:39:55.754208", "MEAN_MOTION": 1.00271515, "ECCENTRICITY": 4.609e-05, "INCLINATION": 0.0242, "RA_OF_ASC_NODE": 105.4723, "ARG_OF_PERICENTER": 224.8294, "MEAN_ANOMALY": 121.6598, "EPHEMERIS_TYPE": 0, "CLASSIFICATION_TYPE": "U", "NORAD_CAT_ID": 54742, "ELEMENT_SET_NO": 999, "REV_AT_EPOCH": 1105, "BSTAR": 0, "MEAN_MOTION_DOT": -1.63e-06, "MEAN_MOTION_DDOT": 0}, "tle": {"line1": "1 54742U 22170B   25361.23606197 -.00000163  00000+0  00000+0 0  9994", "line2": "2 54742   0.0242 105.4723 0000460 224.8294 121.6598  1.00271515 11056"}}, "geometry": {"type": "Point", "coordinates": [-120.83678434915556, 0.0008004192923211882]}}, {"type": "Feature", "properties": {"norad_id": 57493, "name": "GALAXY 37 (G-37)", "group": "intelsat", "lat": 0.005005000197903719, "lon": -158.8716857772088, "alt_km": 35784.081238838466, "timestamp": "2025-12-27T15:27:10.811544+00:00", "meta": {"OBJECT_NAME": "GALAXY 37 (G-37)", "OBJECT_ID": "2023-112A", "EPOCH": "2025-12-27T05:32:55.641984", "MEAN_MOTION": 1.0027199, "ECCENTRICITY": 0.00022151, "INCLINATION": 0.0138, "RA_OF_ASC_NODE": 47.0546, "ARG_OF_PERICENTER": 232.3392, "MEAN_ANOMALY": 132.7964, "EPHEMERIS_TYPE": 0, "CLASSIFICATION_TYPE": "U", "NORAD_CAT_ID": 57493, "ELEMENT_SET_NO": 999, "REV_AT_EPOCH": 881, "BSTAR": 0, "MEAN_MOTION_DOT": 7e-07, "MEAN_MOTION_DDOT": 0}, "tle": {"line1": "1 57493U 23112A   25361.23119956  .00000070  00000+0  00000+0 0  9995", "line2": "2 57493   0.0138  47.0546 0002215 232.3392 132.7964  1.00271990  8810"}}, "geometry": {"type": "Point", "coordinates": [-158.8716857772088, 0.005005000197903719]}}]}